NORAD_CAT_ID,OBJECT_NAME,OBJECT_TYPE,EPOCH,MEAN_MOTION,ECCENTRICITY,INCLINATION,RA_OF_ASC_NODE,ARG_OF_PERICENTER,MEAN_ANOMALY,BSTAR,MEAN_MOTION_DOT,MEAN_MOTION_DDOT,TLE_LINE0,TLE_LINE1,TLE_LINE2,SEMIMAJOR_AXIS,PERIOD,APOGEE,PERIGEE,DECAYED
53915.0,STARLINK-5017,PAYLOAD,2023-04-30 17:56:42,15.0884036,8.15e-05,53.2147,320.6632,90.1127,269.9958,0.0002287,3.354e-05,0.0,0 STARLINK-5017,1 53915U 22119AF  23120.74771364  .00003354  00000-0  22870-3 0  9992,2 53915  53.2147 320.6632 0000815  90.1127 269.9958 15.08840360 33800,6917.879,95.438,540.308,539.18,0.0
53915.0,STARLINK-5017,PAYLOAD,2023-05-01 13:01:20,15.08841626,6.99e-05,53.2149,317.0938,102.4313,257.6757,0.00020605,2.993e-05,0.0,0 STARLINK-5017,1 53915U 22119AF  23121.54259383  .00002993  00000-0  20605-3 0  9995,2 53915  53.2149 317.0938 0000699 102.4313 257.6757 15.08841626 34342,6917.875,95.437,540.224,539.257,0.0
53915.0,STARLINK-5017,PAYLOAD,2023-05-01 19:22:52,15.08845067,8.13e-05,53.2144,315.9055,77.5654,282.5429,0.00021715,3.17e-05,0.0,0 STARLINK-5017,1 53915U 22119AF  23121.80755315  .00003170  00000-0  21715-3 0  9991,2 53915  53.2144 315.9055 0000813  77.5654 282.5429 15.08845067 34382,6917.865,95.437,540.292,539.167,0.0
53915.0,STARLINK-5017,PAYLOAD,2023-05-02 12:52:07,15.08844554,0.000104,53.2149,312.6351,50.3621,309.7463,0.00016932,2.408e-05,0.0,0 STARLINK-5017,1 53915U 22119AF  23122.53619350  .00002408  00000-0  16932-3 0  9998,2 53915  53.2149 312.6351 0001040  50.3621 309.7463 15.08844554 34498,6917.866,95.437,540.451,539.012,0.0
53915.0,STARLINK-5017,PAYLOAD,2023-05-02 19:13:39,15.08848583,9.54e-05,53.2149,311.4453,59.0068,301.1017,0.00019597,2.833e-05,0.0,0 STARLINK-5017,1 53915U 22119AF  23122.80115012  .00002833  00000-0  19597-3 0  9996,2 53915  53.2149 311.4453 0000954  59.0068 301.1017 15.08848583 34534,6917.854,95.437,540.379,539.059,0.0
53915.0,STARLINK-5017,PAYLOAD,2023-05-02 22:24:25,15.08851764,8.86e-05,53.2149,310.8497,68.1962,291.9124,0.00022848,3.352e-05,0.0,0 STARLINK-5017,1 53915U 22119AF  23122.93362741  .00003352  00000-0  22848-3 0  9993,2 53915  53.2149 310.8497 0000886  68.1962 291.9124 15.08851764 34139,6917.844,95.437,540.322,539.097,0.0
53915.0,STARLINK-5017,PAYLOAD,2023-05-03 12:42:54,15.08837785,9.78e-05,53.2148,308.17,97.1535,262.9568,-3.3458e-05,-8.2e-06,0.0,0 STARLINK-5017,1 53915U 22119AF  23123.52979323 -.00000820  00000-0 -33458-4 0  9998,2 53915  53.2148 308.1700 0000978  97.1535 262.9568 15.08837785 34648,6917.887,95.438,540.429,539.076,0.0
53915.0,STARLINK-5017,PAYLOAD,2023-05-03 19:04:26,15.08837852,8.43e-05,53.2156,306.9834,79.955,280.1537,9.8571e-07,-2.72e-06,0.0,0 STARLINK-5017,1 53915U 22119AF  23123.79475551 -.00000272  00000-0  98571-6 0  9990,2 53915  53.2156 306.9834 0000843  79.9550 280.1537 15.08837852 34268,6917.887,95.438,540.335,539.169,0.0
53915.0,STARLINK-5017,PAYLOAD,2023-05-04 12:33:41,15.08837392,9.15e-05,53.2156,303.7114,99.6485,260.4611,3.5981e-05,2.85e-06,0.0,0 STARLINK-5017,1 53915U 22119AF  23124.52339515  .00000285  00000-0  35981-4 0  9998,2 53915  53.2156 303.7114 0000915  99.6485 260.4611 15.08837392 34791,6917.888,95.438,540.386,539.12,0.0
53915.0,STARLINK-5017,PAYLOAD,2023-05-04 17:19:50,15.08841055,8.85e-05,53.2156,302.8196,95.8673,264.242,6.6161e-05,7.65e-06,0.0,0 STARLINK-5017,1 53915U 22119AF  23124.72211258  .00000765  00000-0  66161-4 0  9990,2 53915  53.2156 302.8196 0000885  95.8673 264.2420 15.08841055 34829,6917.877,95.437,540.354,539.13,0.0
53915.0,STARLINK-5017,PAYLOAD,2023-05-05 10:49:05,15.08832986,8.43e-05,53.2156,299.5493,89.0679,271.041,8.2552e-05,1.026e-05,0.0,0 STARLINK-5017,1 53915U 22119AF  23125.45075859  .00001026  00000-0  82552-4 0  9999,2 53915  53.2156 299.5493 0000843  89.0679 271.0410 15.08832986 34510,6917.902,95.438,540.35,539.184,0.0
53915.0,STARLINK-5017,PAYLOAD,2023-05-05 18:46:01,15.08834513,8.3e-05,53.2156,298.0623,90.631,269.4777,6.8782e-05,8.07e-06,0.0,0 STARLINK-5017,1 53915U 22119AF  23125.78195947  .00000807  00000-0  68782-4 0  9991,2 53915  53.2156 298.0623 0000830  90.6310 269.4777 15.08834513 34981,6917.897,95.438,540.336,539.188,0.0
53915.0,STARLINK-5017,PAYLOAD,2023-05-06 15:26:01,15.08840467,8.23e-05,53.2157,294.197,92.289,267.8197,0.00011277,1.508e-05,0.0,0 STARLINK-5017,1 53915U 22119AF  23126.64307850  .00001508  00000-0  11277-3 0  9990,2 53915  53.2157 294.1970 0000823  92.2890 267.8197 15.08840467 35116,6917.879,95.438,540.313,539.175,0.0
53915.0,STARLINK-5017,PAYLOAD,2023-05-07 04:09:06,15.08846085,9.37e-05,53.2156,291.8179,73.3675,286.742,0.00010907,1.449e-05,0.0,0 STARLINK-5017,1 53915U 22119AF  23127.17299420  .00001449  00000-0  10907-3 0  9995,2 53915  53.2156 291.8179 0000937  73.3675 286.7420 15.08846085 35196,6917.862,95.437,540.375,539.079,0.0
53915.0,STARLINK-5017,PAYLOAD,2023-05-07 18:27:35,15.08834397,8.52e-05,53.2155,289.1414,77.1887,282.9201,8.4532e-05,1.058e-05,0.0,0 STARLINK-5017,1 53915U 22119AF  23127.76916550  .00001058  00000-0  84532-4 0  9992,2 53915  53.2155 289.1414 0000852  77.1887 282.9201 15.08834397 34861,6917.898,95.438,540.352,539.173,0.0
53915.0,STARLINK-5017,PAYLOAD,2023-05-08 16:42:59,15.08848404,9.36e-05,53.2144,284.978,70.2999,289.8094,0.00033253,5.01e-05,0.0,0 STARLINK-5017,1 53915U 22119AF  23128.69651969  .00005010  00000-0  33253-3 0  9990,2 53915  53.2144 284.9780 0000936  70.2999 289.8094 15.08848404 35006,6917.855,95.437,540.367,539.072,0.0
53915.0,STARLINK-5017,PAYLOAD,2023-05-09 13:23:00,15.08841666,9.87e-05,53.2148,281.112,64.1118,295.9976,0.0001887,2.717e-05,0.0,0 STARLINK-5017,1 53915U 22119AF  23129.55764254  .00002717  00000-0  18870-3 0  9997,2 53915  53.2148 281.1120 0000987  64.1118 295.9976 15.08841666 35558,6917.875,95.437,540.423,539.058,0.0
53915.0,STARLINK-5017,PAYLOAD,2023-05-10 13:13:47,15.08838694,9.69e-05,53.2148,276.6509,77.4461,282.664,3.6504e-05,2.93e-06,0.0,0 STARLINK-5017,1 53915U 22119AF  23130.55124259  .00000293  00000-0  36504-4 0  9996,2 53915  53.2148 276.6509 0000969  77.4461 282.6640 15.08838694 35701,6917.884,95.438,540.42,539.079,0.0
53915.0,STARLINK-5017,PAYLOAD,2023-05-10 16:24:33,15.08847137,9.71e-05,53.215,276.0547,86.3722,273.7381,0.00019661,2.843e-05,0.0,0 STARLINK-5017,1 53915U 22119AF  23130.68371994  .00002843  00000-0  19661-3 0  9997,2 53915  53.2150 276.0547 0000971  86.3722 273.7381 15.08847137 35303,6917.859,95.437,540.395,539.052,0.0
53915.0,STARLINK-5017,PAYLOAD,2023-05-11 16:15:20,15.0884658,7.75e-05,53.2153,271.5969,77.6864,282.4215,0.00023571,3.466e-05,0.0,0 STARLINK-5017,1 53915U 22119AF  23131.67732048  .00003466  00000-0  23571-3 0  9995,2 53915  53.2153 271.5969 0000775  77.6864 282.4215 15.08846580 35456,6917.86,95.437,540.261,539.189,0.0
53915.0,STARLINK-5017,PAYLOAD,2023-05-12 01:47:39,15.08841128,9.67e-05,53.2131,269.8116,81.7378,278.3724,9.6556e-05,1.249e-05,0.0,0 STARLINK-5017,1 53915U 22119AF  23132.07476040  .00001249  00000-0  96556-4 0  9998,2 53915  53.2131 269.8116 0000967  81.7378 278.3724 15.08841128 35930,6917.877,95.437,540.411,539.073,0.0
53915.0,STARLINK-5017,PAYLOAD,2023-05-12 16:06:07,15.08839131,7.34e-05,53.2141,267.1385,106.9225,253.1847,5.0525e-05,5.17e-06,0.0,0 STARLINK-5017,1 53915U 22119AF  23132.67092334  .00000517  00000-0  50525-4 0  9997,2 53915  53.2141 267.1385 0000734 106.9225 253.1847 15.08839131 35605,6917.883,95.438,540.256,539.24,0.0
53915.0,STARLINK-5017,PAYLOAD,2023-05-13 12:46:08,15.08840972,0.0001005,53.2145,263.2698,87.6533,272.4574,-1.0415e-05,-4.54e-06,0.0,0 STARLINK-5017,1 53915U 22119AF  23133.53204199 -.00000454  00000-0 -10415-4 0  9993,2 53915  53.2145 263.2698 0001005  87.6533 272.4574 15.08840972 36159,6917.877,95.437,540.438,539.047,0.0
53915.0,STARLINK-5017,PAYLOAD,2023-05-13 15:56:54,15.08847034,9.59e-05,53.2143,262.6768,93.819,266.2912,9.4346e-05,1.214e-05,0.0,0 STARLINK-5017,1 53915U 22119AF  23133.66451851  .00001214  00000-0  94346-4 0  9994,2 53915  53.2143 262.6768 0000959  93.8190 266.2912 15.08847034 36178,6917.859,95.437,540.387,539.06,0.0
53915.0,STARLINK-5017,PAYLOAD,2023-05-14 01:29:13,15.08836874,0.000105,53.2148,260.8932,93.8605,266.2507,-3.1822e-05,-7.94e-06,0.0,0 STARLINK-5017,1 53915U 22119AF  23134.06196318 -.00000794  00000-0 -31822-4 0  9997,2 53915  53.2148 260.8932 0001050  93.8605 266.2507 15.08836874 35810,6917.89,95.438,540.481,539.029,0.0
53915.0,STARLINK-5017,PAYLOAD,2023-05-14 12:36:56,15.08825541,9.28e-05,53.2138,258.8118,98.1381,261.9716,-8.2146e-05,-1.594e-05,0.0,0 STARLINK-5017,1 53915U 22119AF  23134.52565285 -.00001594  00000-0 -82146-4 0  9995,2 53915  53.2138 258.8118 0000928  98.1381 261.9716 15.08825541 35884,6917.925,95.438,540.432,539.148,0.0
53915.0,STARLINK-5017,PAYLOAD,2023-05-14 14:12:19,15.08832379,0.0001027,53.2155,258.5125,89.7194,270.3916,-1.9963e-05,-6.05e-06,0.0,0 STARLINK-5017,1 53915U 22119AF  23134.59189518 -.00000605  00000-0 -19963-4 0  9992,2 53915  53.2155 258.5125 0001027  89.7194 270.3916 15.08832379 36319,6917.904,95.438,540.479,539.058,0.0
53915.0,STARLINK-5017,PAYLOAD,2023-05-14 15:47:42,15.08835808,0.0001065,53.2156,258.215,87.9757,272.1357,3.646e-06,-2.3e-06,0.0,0 STARLINK-5017,1 53915U 22119AF  23134.65813256 -.00000230  00000-0  36460-5 0  9997,2 53915  53.2156 258.2150 0001065  87.9757 272.1357 15.08835808 36322,6917.893,95.438,540.495,539.021,0.0
53915.0,STARLINK-5017,PAYLOAD,2023-05-15 01:20:01,15.0883774,0.0001216,53.2157,256.4298,87.1397,272.9735,5.1829e-05,5.37e-06,0.0,0 STARLINK-5017,1 53915U 22119AF  23135.05557083  .00000537  00000-0  51829-4 0  9999,2 53915  53.2157 256.4298 0001216  87.1397 272.9735 15.08837740 35960,6917.887,95.438,540.594,538.911,0.0
53915.0,STARLINK-5017,PAYLOAD,2023-05-15 12:27:43,15.08839874,9.47e-05,53.2154,254.3506,86.5345,273.5755,0.0001128,1.508e-05,0.0,0 STARLINK-5017,1 53915U 22119AF  23135.51924836  .00001508  00000-0  11280-3 0  9999,2 53915  53.2154 254.3506 0000947  86.5345 273.5755 15.08839874 36456,6917.881,95.438,540.401,539.091,0.0
